GLOBALSTAR M045         
1 25676U 99019A   25071.72734716 -.00000102  00000+0 -75989-4 0  9992
2 25676  51.9954 220.2002 0000944  86.6835 287.1201 12.27058310181552
GLOBALSTAR M019         
1 25677U 99019B   25071.92912885 -.00000156  00000+0 -69199-3 0  9994
2 25677  51.9907 343.2173 0001489 105.2508 334.7349 12.13871142173459
GLOBALSTAR M042         
1 25679U 99019D   25071.94960565 -.00000065  00000+0  25800-3 0  9995
2 25679  52.0036 322.6376 0003526  95.3124 277.7087 12.22080081173492
GLOBALSTAR M025         
1 25770U 99031A   25071.86264582 -.00000087  00000+0 -60866-3 0  9994
2 25770  51.9852  22.4118 0001631 358.1185  35.1370 11.22559069470890
GLOBALSTAR M049         
1 25771U 99031B   25071.90569589 -.00000059  00000+0  19993-3 0  9998
2 25771  51.9887  52.2356 0002939 208.9970 151.0663 11.12116126106712
GLOBALSTAR M047         
1 25772U 99031C   25071.62911984 -.00000065  00000+0  12271-3 0  9997
2 25772  51.9838  59.0575 0016458  97.2495 263.0182 11.31926271460173
GLOBALSTAR M052         
1 25773U 99031D   25071.97724470 -.00000066  00000+0 -14733-4 0  9996
2 25773  51.9851 162.1060 0002113  28.3300 143.1118 11.15058584467772
